[
    {
        "Altitude(m)": 703263.0318462027,
        "Argument of Periapsis(deg)": 0.0,
        "Eccentricity": 0.0,
        "Inclination(deg)": 45.0,
        "Latitude(deg)": 22.54567394831371,
        "Longitude(deg)": -114.357540293337,
        "Mean Anomaly(deg)": 147.27270000000001,
        "RAAN(deg)": 190.0,
        "Satellite Name": "Constellation 1 845",
        "Satellite Number": 845,
        "Semi-Major Axis(m)": 7083131.272910544,
        "Time(s)": 0
    },
    {
        "Altitude(m)": 703258.9240342027,
        "Argument of Periapsis(deg)": 5.994800624540561e-05,
        "Eccentricity": 0.0,
        "Inclination(deg)": 45.0,
        "Latitude(deg)": 22.506346978454324,
        "Longitude(deg)": -114.31144941199597,
        "Mean Anomaly(deg)": 147.33340114024986,
        "RAAN(deg)": 189.99994341083445,
        "Satellite Name": "Constellation 1 845",
        "Satellite Number": 845,
        "Semi-Major Axis(m)": 7083131.272910544,
        "Time(s)": 1
    },
    {
        "Altitude(m)": 703254.8280488127,
        "Argument of Periapsis(deg)": 0.00011989601249081122,
        "Eccentricity": 0.0,
        "Inclination(deg)": 45.0,
        "Latitude(deg)": 22.46700419962008,
        "Longitude(deg)": -114.26538691577939,
        "Mean Anomaly(deg)": 147.39410228049982,
        "RAAN(deg)": 189.99988682166887,
        "Satellite Name": "Constellation 1 845",
        "Satellite Number": 845,
        "Semi-Major Axis(m)": 7083131.272910544,
        "Time(s)": 2
    },
    {
        "Altitude(m)": 703250.7439245828,
        "Argument of Periapsis(deg)": 0.00017984401873621686,
        "Eccentricity": 0.0,
        "Inclination(deg)": 45.0,
        "Latitude(deg)": 22.42764565104669,
        "Longitude(deg)": -114.21935274496278,
        "Mean Anomaly(deg)": 147.4548034207497,
        "RAAN(deg)": 189.9998302325033,
        "Satellite Name": "Constellation 1 845",
        "Satellite Number": 845,
        "Semi-Major Axis(m)": 7083131.272910544,
        "Time(s)": 3
    },
    {
        "Altitude(m)": 703246.6716960162,
        "Argument of Periapsis(deg)": 0.00023979202498162244,
        "Eccentricity": 0.0,
        "Inclination(deg)": 45.0,
        "Latitude(deg)": 22.388271371913834,
        "Longitude(deg)": -114.17334683984197,
        "Mean Anomaly(deg)": 147.51550456099955,
        "RAAN(deg)": 189.9997736433377,
        "Satellite Name": "Constellation 1 845",
        "Satellite Number": 845,
        "Semi-Major Axis(m)": 7083131.272910544,
        "Time(s)": 4
    },
    {
        "Altitude(m)": 703242.6113975713,
        "Argument of Periapsis(deg)": 0.00029974003122702807,
        "Eccentricity": 0.0,
        "Inclination(deg)": 45.0,
        "Latitude(deg)": 22.34888140134555,
        "Longitude(deg)": -114.12736914073348,
        "Mean Anomaly(deg)": 147.57620570124945,
        "RAAN(deg)": 189.99971705417215,
        "Satellite Name": "Constellation 1 845",
        "Satellite Number": 845,
        "Semi-Major Axis(m)": 7083131.272910544,
        "Time(s)": 5
    },
    {
        "Altitude(m)": 703238.563063674,
        "Argument of Periapsis(deg)": 0.00035968803747243373,
        "Eccentricity": 0.0,
        "Inclination(deg)": 45.0,
        "Latitude(deg)": 22.30947577841029,
        "Longitude(deg)": -114.08141958797474,
        "Mean Anomaly(deg)": 147.63690684149938,
        "RAAN(deg)": 189.9996604650066,
        "Satellite Name": "Constellation 1 845",
        "Satellite Number": 845,
        "Semi-Major Axis(m)": 7083131.272910544,
        "Time(s)": 6
    },
    {
        "Altitude(m)": 703234.5267286866,
        "Argument of Periapsis(deg)": 0.00041963604371783933,
        "Eccentricity": 0.0,
        "Inclination(deg)": 45.0,
        "Latitude(deg)": 22.270054542121244,
        "Longitude(deg)": -114.03549829002134,
        "Mean Anomaly(deg)": 147.69760798174926,
        "RAAN(deg)": 189.99960387584102,
        "Satellite Name": "Constellation 1 845",
        "Satellite Number": 845,
        "Semi-Major Axis(m)": 7083131.272910544,
        "Time(s)": 7
    },
    {
        "Altitude(m)": 703230.5024269446,
        "Argument of Periapsis(deg)": 0.0004795840499632449,
        "Eccentricity": 0.0,
        "Inclination(deg)": 45.0,
        "Latitude(deg)": 22.230617731435682,
        "Longitude(deg)": -113.98960485105907,
        "Mean Anomaly(deg)": 147.7583091219992,
        "RAAN(deg)": 189.99954728667547,
        "Satellite Name": "Constellation 1 845",
        "Satellite Number": 845,
        "Semi-Major Axis(m)": 7083131.272910544,
        "Time(s)": 8
    },
    {
        "Altitude(m)": 703226.4901927459,
        "Argument of Periapsis(deg)": 0.0005395320562086505,
        "Eccentricity": 0.0,
        "Inclination(deg)": 45.0,
        "Latitude(deg)": 22.191165385256124,
        "Longitude(deg)": -113.94373937958606,
        "Mean Anomaly(deg)": 147.819010262249,
        "RAAN(deg)": 189.9994906975099,
        "Satellite Name": "Constellation 1 845",
        "Satellite Number": 845,
        "Semi-Major Axis(m)": 7083131.272910544,
        "Time(s)": 9
    },
    {
        "Altitude(m)": 703222.4900603212,
        "Argument of Periapsis(deg)": 0.0005994800624540561,
        "Eccentricity": 0.0,
        "Inclination(deg)": 45.0,
        "Latitude(deg)": 22.151697542429748,
        "Longitude(deg)": -113.89790181602488,
        "Mean Anomaly(deg)": 147.879711402499,
        "RAAN(deg)": 189.9994341083443,
        "Satellite Name": "Constellation 1 845",
        "Satellite Number": 845,
        "Semi-Major Axis(m)": 7083131.272910544,
        "Time(s)": 10
    },
    {
        "Altitude(m)": 703218.5020638775,
        "Argument of Periapsis(deg)": 0.0006594280686994618,
        "Eccentricity": 0.0,
        "Inclination(deg)": 45.0,
        "Latitude(deg)": 22.112214241748777,
        "Longitude(deg)": -113.85209210081983,
        "Mean Anomaly(deg)": 147.94041254274887,
        "RAAN(deg)": 189.99937751917875,
        "Satellite Name": "Constellation 1 845",
        "Satellite Number": 845,
        "Semi-Major Axis(m)": 7083131.272910544,
        "Time(s)": 11
    },
    {
        "Altitude(m)": 703214.5262375735,
        "Argument of Periapsis(deg)": 0.0007193760749448675,
        "Eccentricity": 0.0,
        "Inclination(deg)": 45.0,
        "Latitude(deg)": 22.072715521950464,
        "Longitude(deg)": -113.80631017443717,
        "Mean Anomaly(deg)": 148.00111368299872,
        "RAAN(deg)": 189.99932093001317,
        "Satellite Name": "Constellation 1 845",
        "Satellite Number": 845,
        "Semi-Major Axis(m)": 7083131.272910544,
        "Time(s)": 12
    },
    {
        "Altitude(m)": 703210.5626155247,
        "Argument of Periapsis(deg)": 0.000779324081190273,
        "Eccentricity": 0.0,
        "Inclination(deg)": 45.0,
        "Latitude(deg)": 22.033201421717248,
        "Longitude(deg)": -113.76055597736496,
        "Mean Anomaly(deg)": 148.0618148232487,
        "RAAN(deg)": 189.99926434084762,
        "Satellite Name": "Constellation 1 845",
        "Satellite Number": 845,
        "Semi-Major Axis(m)": 7083131.272910544,
        "Time(s)": 13
    },
    {
        "Altitude(m)": 703206.6112317956,
        "Argument of Periapsis(deg)": 0.0008392720874356787,
        "Eccentricity": 0.0,
        "Inclination(deg)": 45.0,
        "Latitude(deg)": 21.99367197967694,
        "Longitude(deg)": -113.71482945011368,
        "Mean Anomaly(deg)": 148.12251596349856,
        "RAAN(deg)": 189.99920775168206,
        "Satellite Name": "Constellation 1 845",
        "Satellite Number": 845,
        "Semi-Major Axis(m)": 7083131.272910544,
        "Time(s)": 14
    },
    {
        "Altitude(m)": 703202.6721204115,
        "Argument of Periapsis(deg)": 0.0008992200936810842,
        "Eccentricity": 0.0,
        "Inclination(deg)": 45.0,
        "Latitude(deg)": 21.954127234402883,
        "Longitude(deg)": -113.6691307013128,
        "Mean Anomaly(deg)": 148.18321710374846,
        "RAAN(deg)": 189.99915116251645,
        "Satellite Name": "Constellation 1 845",
        "Satellite Number": 845,
        "Semi-Major Axis(m)": 7083131.272910544,
        "Time(s)": 15
    },
    {
        "Altitude(m)": 703198.7453153537,
        "Argument of Periapsis(deg)": 0.0009591680999264898,
        "Eccentricity": 0.0,
        "Inclination(deg)": 45.0,
        "Latitude(deg)": 21.914567224413485,
        "Longitude(deg)": -113.6234593353235,
        "Mean Anomaly(deg)": 148.24391824399834,
        "RAAN(deg)": 189.9990945733509,
        "Satellite Name": "Constellation 1 845",
        "Satellite Number": 845,
        "Semi-Major Axis(m)": 7083131.272910544,
        "Time(s)": 16
    },
    {
        "Altitude(m)": 703194.8308505613,
        "Argument of Periapsis(deg)": 0.0010191161061718953,
        "Eccentricity": 0.0,
        "Inclination(deg)": 45.0,
        "Latitude(deg)": 21.874991988173328,
        "Longitude(deg)": -113.5778154608205,
        "Mean Anomaly(deg)": 148.3046193842483,
        "RAAN(deg)": 189.99903798418535,
        "Satellite Name": "Constellation 1 845",
        "Satellite Number": 845,
        "Semi-Major Axis(m)": 7083131.272910544,
        "Time(s)": 17
    },
    {
        "Altitude(m)": 703190.9287599149,
        "Argument of Periapsis(deg)": 0.001079064112417301,
        "Eccentricity": 0.0,
        "Inclination(deg)": 45.0,
        "Latitude(deg)": 21.835401564092585,
        "Longitude(deg)": -113.53219901840417,
        "Mean Anomaly(deg)": 148.3653205244982,
        "RAAN(deg)": 189.99898139501977,
        "Satellite Name": "Constellation 1 845",
        "Satellite Number": 845,
        "Semi-Major Axis(m)": 7083131.272910544,
        "Time(s)": 18
    }
]